CCSDS_OMM_VERS = 2.0
CREATION_DATE  = 
ORIGINATOR     = 

OBJECT_NAME    = H-2A R/B
OBJECT_ID      = 2012-025E
CENTER_NAME    = EARTH
REF_FRAME      = TEME
TIME_SYSTEM    = UTC
MEAN_ELEMENT_THEORY = SGP/SGP4

EPOCH          = 2025-11-19T20:57:29.316672
MEAN_MOTION    = 14.94223296
ECCENTRICITY   = .00443929
INCLINATION    = 98.4558
RA_OF_ASC_NODE = 277.3485
ARG_OF_PERICENTER = 313.2310
MEAN_ANOMALY   = 46.5204

EPHEMERIS_TYPE = 0
CLASSIFICATION_TYPE = U
NORAD_CAT_ID   = 38341
ELEMENT_SET_NO = 999
REV_AT_EPOCH   = 73181
BSTAR          = .35020837E-3
MEAN_MOTION_DOT = .3758E-4
MEAN_MOTION_DDOT = 0

CCSDS_OMM_VERS = 2.0
CREATION_DATE  = 
ORIGINATOR     = 

OBJECT_NAME    = SHIJIAN-16 (SJ-16)
OBJECT_ID      = 2013-057A
CENTER_NAME    = EARTH
REF_FRAME      = TEME
TIME_SYSTEM    = UTC
MEAN_ELEMENT_THEORY = SGP/SGP4

EPOCH          = 2025-11-19T22:29:16.991808
MEAN_MOTION    = 14.91889837
ECCENTRICITY   = .00167218
INCLINATION    = 74.9749
RA_OF_ASC_NODE = 32.7964
ARG_OF_PERICENTER = 14.5364
MEAN_ANOMALY   = 345.6301

EPHEMERIS_TYPE = 0
CLASSIFICATION_TYPE = U
NORAD_CAT_ID   = 39358
ELEMENT_SET_NO = 999
REV_AT_EPOCH   = 65513
BSTAR          = .24457232E-3
MEAN_MOTION_DOT = .245E-4
MEAN_MOTION_DDOT = 0

CCSDS_OMM_VERS = 2.0
CREATION_DATE  = 
ORIGINATOR     = 

OBJECT_NAME    = SL-4 R/B
OBJECT_ID      = 2014-021B
CENTER_NAME    = EARTH
REF_FRAME      = TEME
TIME_SYSTEM    = UTC
MEAN_ELEMENT_THEORY = SGP/SGP4

EPOCH          = 2025-11-19T14:06:20.236608
MEAN_MOTION    = 15.35861717
ECCENTRICITY   = .0103601
INCLINATION    = 51.6056
RA_OF_ASC_NODE = 153.0411
ARG_OF_PERICENTER = 62.9493
MEAN_ANOMALY   = 298.2018

EPHEMERIS_TYPE = 0
CLASSIFICATION_TYPE = U
NORAD_CAT_ID   = 39679
ELEMENT_SET_NO = 999
REV_AT_EPOCH   = 63933
BSTAR          = .32189E-3
MEAN_MOTION_DOT = .13217E-3
MEAN_MOTION_DDOT = 0

CCSDS_OMM_VERS = 2.0
CREATION_DATE  = 
ORIGINATOR     = 

OBJECT_NAME    = ALOS-2
OBJECT_ID      = 2014-029A
CENTER_NAME    = EARTH
REF_FRAME      = TEME
TIME_SYSTEM    = UTC
MEAN_ELEMENT_THEORY = SGP/SGP4

EPOCH          = 2025-11-19T22:49:06.611808
MEAN_MOTION    = 14.79468803
ECCENTRICITY   = .00014182
INCLINATION    = 97.9235
RA_OF_ASC_NODE = 59.1208
ARG_OF_PERICENTER = 99.5668
MEAN_ANOMALY   = 260.5704

EPHEMERIS_TYPE = 0
CLASSIFICATION_TYPE = U
NORAD_CAT_ID   = 39766
ELEMENT_SET_NO = 999
REV_AT_EPOCH   = 62064
BSTAR          = .29053066E-3
MEAN_MOTION_DOT = .2119E-4
MEAN_MOTION_DDOT = 0

CCSDS_OMM_VERS = 2.0
CREATION_DATE  = 
ORIGINATOR     = 

OBJECT_NAME    = YAOGAN-29
OBJECT_ID      = 2015-069A
CENTER_NAME    = EARTH
REF_FRAME      = TEME
TIME_SYSTEM    = UTC
MEAN_ELEMENT_THEORY = SGP/SGP4

EPOCH          = 2025-11-20T00:17:17.200032
MEAN_MOTION    = 14.82846767
ECCENTRICITY   = .00017322
INCLINATION    = 98.0241
RA_OF_ASC_NODE = 347.1084
ARG_OF_PERICENTER = 35.2186
MEAN_ANOMALY   = 324.9142

EPHEMERIS_TYPE = 0
CLASSIFICATION_TYPE = U
NORAD_CAT_ID   = 41038
ELEMENT_SET_NO = 999
REV_AT_EPOCH   = 53962
BSTAR          = .77373974E-4
MEAN_MOTION_DOT = .572E-5
MEAN_MOTION_DDOT = 0

CCSDS_OMM_VERS = 2.0
CREATION_DATE  = 
ORIGINATOR     = 

OBJECT_NAME    = ASTRO-H (HITOMI)
OBJECT_ID      = 2016-012A
CENTER_NAME    = EARTH
REF_FRAME      = TEME
TIME_SYSTEM    = UTC
MEAN_ELEMENT_THEORY = SGP/SGP4

EPOCH          = 2025-11-19T17:46:58.797984
MEAN_MOTION    = 15.09151234
ECCENTRICITY   = .00098388
INCLINATION    = 31.0014
RA_OF_ASC_NODE = 345.6134
ARG_OF_PERICENTER = 305.6507
MEAN_ANOMALY   = 54.3214

EPHEMERIS_TYPE = 0
CLASSIFICATION_TYPE = U
NORAD_CAT_ID   = 41337
ELEMENT_SET_NO = 999
REV_AT_EPOCH   = 53560
BSTAR          = .18108715E-3
MEAN_MOTION_DOT = .3042E-4
MEAN_MOTION_DDOT = 0

CCSDS_OMM_VERS = 2.0
CREATION_DATE  = 
ORIGINATOR     = 

OBJECT_NAME    = HXMT (HUIYAN)
OBJECT_ID      = 2017-034A
CENTER_NAME    = EARTH
REF_FRAME      = TEME
TIME_SYSTEM    = UTC
MEAN_ELEMENT_THEORY = SGP/SGP4

EPOCH          = 2025-11-19T22:18:35.000928
MEAN_MOTION    = 15.15935398
ECCENTRICITY   = .00341685
INCLINATION    = 43.0151
RA_OF_ASC_NODE = 266.1781
ARG_OF_PERICENTER = 261.3335
MEAN_ANOMALY   = 98.3641

EPHEMERIS_TYPE = 0
CLASSIFICATION_TYPE = U
NORAD_CAT_ID   = 42758
ELEMENT_SET_NO = 999
REV_AT_EPOCH   = 46587
BSTAR          = .47570269E-3
MEAN_MOTION_DOT = .9195E-4
MEAN_MOTION_DDOT = 0

CCSDS_OMM_VERS = 2.0
CREATION_DATE  = 
ORIGINATOR     = 

OBJECT_NAME    = CZ-2C R/B
OBJECT_ID      = 2018-054D
CENTER_NAME    = EARTH
REF_FRAME      = TEME
TIME_SYSTEM    = UTC
MEAN_ELEMENT_THEORY = SGP/SGP4

EPOCH          = 2025-11-19T11:34:45.901344
MEAN_MOTION    = 15.69022195
ECCENTRICITY   = .0022705
INCLINATION    = 35.1359
RA_OF_ASC_NODE = 337.9826
ARG_OF_PERICENTER = 272.6371
MEAN_ANOMALY   = 87.1761

EPHEMERIS_TYPE = 0
CLASSIFICATION_TYPE = U
NORAD_CAT_ID   = 43521
ELEMENT_SET_NO = 999
REV_AT_EPOCH   = 41139
BSTAR          = .77415E-3
MEAN_MOTION_DOT = .95068E-3
MEAN_MOTION_DDOT = 0

CCSDS_OMM_VERS = 2.0
CREATION_DATE  = 
ORIGINATOR     = 

OBJECT_NAME    = SAOCOM 1A
OBJECT_ID      = 2018-076A
CENTER_NAME    = EARTH
REF_FRAME      = TEME
TIME_SYSTEM    = UTC
MEAN_ELEMENT_THEORY = SGP/SGP4

EPOCH          = 2025-11-19T23:43:11.102880
MEAN_MOTION    = 14.82141309
ECCENTRICITY   = .00015507
INCLINATION    = 97.8852
RA_OF_ASC_NODE = 148.7409
ARG_OF_PERICENTER = 91.7275
MEAN_ANOMALY   = 268.4116

EPHEMERIS_TYPE = 0
CLASSIFICATION_TYPE = U
NORAD_CAT_ID   = 43641
ELEMENT_SET_NO = 999
REV_AT_EPOCH   = 38511
BSTAR          = .91602876E-4
MEAN_MOTION_DOT = .677E-5
MEAN_MOTION_DDOT = 0

CCSDS_OMM_VERS = 2.0
CREATION_DATE  = 
ORIGINATOR     = 

OBJECT_NAME    = H-2A R/B
OBJECT_ID      = 2018-084L
CENTER_NAME    = EARTH
REF_FRAME      = TEME
TIME_SYSTEM    = UTC
MEAN_ELEMENT_THEORY = SGP/SGP4

EPOCH          = 2025-11-19T18:33:40.360320
MEAN_MOTION    = 15.36288001
ECCENTRICITY   = .00289244
INCLINATION    = 98.8787
RA_OF_ASC_NODE = 153.1135
ARG_OF_PERICENTER = 44.5165
MEAN_ANOMALY   = 315.8391

EPHEMERIS_TYPE = 0
CLASSIFICATION_TYPE = U
NORAD_CAT_ID   = 43682
ELEMENT_SET_NO = 999
REV_AT_EPOCH   = 38887
BSTAR          = .4431528E-3
MEAN_MOTION_DOT = .15802E-3
MEAN_MOTION_DDOT = 0

CCSDS_OMM_VERS = 2.0
CREATION_DATE  = 
ORIGINATOR     = 

OBJECT_NAME    = SAOCOM 1B
OBJECT_ID      = 2020-059A
CENTER_NAME    = EARTH
REF_FRAME      = TEME
TIME_SYSTEM    = UTC
MEAN_ELEMENT_THEORY = SGP/SGP4

EPOCH          = 2025-11-19T22:51:01.802880
MEAN_MOTION    = 14.82149548
ECCENTRICITY   = .00013429
INCLINATION    = 97.8848
RA_OF_ASC_NODE = 147.8071
ARG_OF_PERICENTER = 89.4651
MEAN_ANOMALY   = 270.6716

EPHEMERIS_TYPE = 0
CLASSIFICATION_TYPE = U
NORAD_CAT_ID   = 46265
ELEMENT_SET_NO = 999
REV_AT_EPOCH   = 28249
BSTAR          = .3433548E-4
MEAN_MOTION_DOT = .221E-5
MEAN_MOTION_DDOT = 0

CCSDS_OMM_VERS = 2.0
CREATION_DATE  = 
ORIGINATOR     = 

OBJECT_NAME    = CSS (TIANHE)
OBJECT_ID      = 2021-035A
CENTER_NAME    = EARTH
REF_FRAME      = TEME
TIME_SYSTEM    = UTC
MEAN_ELEMENT_THEORY = SGP/SGP4

EPOCH          = 2025-11-19T21:43:43.504032
MEAN_MOTION    = 15.59324460
ECCENTRICITY   = .00073415
INCLINATION    = 41.4653
RA_OF_ASC_NODE = 155.2455
ARG_OF_PERICENTER = 199.2002
MEAN_ANOMALY   = 160.8561

EPHEMERIS_TYPE = 0
CLASSIFICATION_TYPE = U
NORAD_CAT_ID   = 48274
ELEMENT_SET_NO = 999
REV_AT_EPOCH   = 26046
BSTAR          = .23501423E-3
MEAN_MOTION_DOT = .1878E-3
MEAN_MOTION_DDOT = 0

