H-2A R/B                
1 38341U 12025E   25323.87325598  .00003758  00000+0  35021-3 0  9997
2 38341  98.4558 277.3485 0044392 313.2310  46.5204 14.94223296731814
SHIJIAN-16 (SJ-16)      
1 39358U 13057A   25323.93700222  .00002450  00000+0  24457-3 0  9999
2 39358  74.9749  32.7964 0016721  14.5364 345.6301 14.91889837655131
SL-4 R/B                
1 39679U 14021B   25323.58773422  .00013217  00000+0  32189-3 0  9994
2 39679  51.6056 153.0411 0103601  62.9493 298.2018 15.35861717639336
ALOS-2                  
1 39766U 14029A   25323.95077097  .00002119  00000+0  29053-3 0  9990
2 39766  97.9235  59.1208 0001418  99.5668 260.5704 14.79468803620642
YAOGAN-29               
1 41038U 15069A   25324.01200463  .00000572  00000+0  77374-4 0  9994
2 41038  98.0241 347.1084 0001732  35.2186 324.9142 14.82846767539620
ASTRO-H (HITOMI)        
1 41337U 16012A   25323.74095831  .00003042  00000+0  18109-3 0  9990
2 41337  31.0014 345.6134 0009838 305.6507  54.3214 15.09151234535608
HXMT (HUIYAN)           
1 42758U 17034A   25323.92957177  .00009195  00000+0  47570-3 0  9992
2 42758  43.0151 266.1781 0034168 261.3335  98.3641 15.15935398465878
CZ-2C R/B               
1 43521U 18054D   25323.48247571  .00095068  00000+0  77415-3 0  9990
2 43521  35.1359 337.9826 0022705 272.6371  87.1761 15.69022195411393
SAOCOM 1A               
1 43641U 18076A   25323.98832295  .00000677  00000+0  91603-4 0  9993
2 43641  97.8852 148.7409 0001550  91.7275 268.4116 14.82141309385113
H-2A R/B                
1 43682U 18084L   25323.77338380  .00015802  00000+0  44315-3 0  9993
2 43682  98.8787 153.1135 0028924  44.5165 315.8391 15.36288001388879
SAOCOM 1B               
1 46265U 20059A   25323.95210420  .00000221  00000+0  34335-4 0  9993
2 46265  97.8848 147.8071 0001342  89.4651 270.6716 14.82149548282490
CSS (TIANHE)            
1 48274U 21035A   25323.90536463  .00018780  00000+0  23501-3 0  9994
2 48274  41.4653 155.2455 0007341 199.2002 160.8561 15.59324460260469
